GORIZONT 1              
1 11158U 78118A   24162.55861627  .00000003  00000+0  00000+0 0  9997
2 11158  11.4549 177.7138 3255128 320.9048  19.4619  1.00245162115556
GORIZONT 2              
1 11440U 79062A   24163.44248097  .00000024  00000+0  00000+0 0  9992
2 11440   7.5488 293.6076 0001668 302.6826 246.2945  1.00250194130643
GORIZONT 3              
1 11648U 79105A   24163.50963407  .00000144  00000+0  00000+0 0  9999
2 11648   7.7230 295.2258 0012488 233.9467 315.2553  1.00253709115100
GORIZONT 4              
1 11841U 80049A   24163.10604917 -.00000176  00000+0  00000+0 0  9993
2 11841   8.9233 301.7347 0000190 359.5950 359.4215  0.98631532226256
GORIZONT 5              
1 13092U 82020A   24164.18139825 -.00000186  00000+0  00000+0 0  9995
2 13092   9.9917 307.2829 0033487 232.0381 327.6046  0.98534146114348
GORIZONT 6              
1 13624U 82103A   24163.78168282 -.00000227  00000+0  00000+0 0  9998
2 13624   8.9451 307.5340 0000563 208.8509 355.1314  1.00271272113563
GORIZONT 7              
1 14160U 83066A   24163.94356464  .00000005  00000+0  00000+0 0  9995
2 14160  10.7553 317.5512 0010025 329.5494  16.8026  0.98346535147562
GORIZONT 8              
1 14532U 83118A   24163.81240668 -.00000155  00000+0  00000+0 0  9997
2 14532  10.9687 319.5228 0029748 166.3827 191.1946  0.98270651113319
GORIZONT 9              
1 14940U 84041A   24163.60169164 -.00000295  00000+0  00000+0 0  9999
2 14940  10.1460 317.3795 0004787 236.2136  20.3522  1.00270736114563
GORIZONT 10             
1 15144U 84078A   24163.27782375 -.00000286  00000+0  00000+0 0  9994
2 15144  10.2644 318.4116 0000593 230.5058 125.6668  1.00321087147196
GORIZONT 11             
1 15484U 85007A   24163.51302795  .00000065  00000+0  00000+0 0  9999
2 15484  10.4811 320.4986 0004298 180.7579   1.4364  1.00156236145250
GORIZONT 12             
1 16769U 86044A   24163.60914597 -.00000355  00000+0  00000+0 0  9990
2 16769  11.2280 326.0293 0001763 241.7395  19.7007  1.00249641139888
GORIZONT 13             
1 17083U 86090A   24163.52018161 -.00000075  00000+0  00000+0 0  9993
2 17083  13.2526 333.5330 0012643 352.4612   3.2578  0.96725803111524
GORIZONT 14             
1 17969U 87040A   24163.18243823 -.00000152  00000+0  00000+0 0  9995
2 17969  11.9838 324.6307 0031278 190.6913 180.0256  0.97660017112674
GORIZONT 15             
1 19017U 88028A   24163.75113789 -.00000187  00000+0  00000+0 0  9996
2 19017  13.6253 336.1359 0036835 173.6639 197.0582  0.97830373112297
GORIZONT 16             
1 19397U 88071A   24163.89146584 -.00000297  00000+0  00000+0 0  9991
2 19397  12.4611 334.8116 0013678  82.1966 110.3694  0.99977928130872
GORIZONT 17             
1 19765U 89004A   24163.19424545 -.00000113  00000+0  00000+0 0  9993
2 19765  13.0942 338.2740 0023271 150.3128  31.8227  0.99068452128288
GORIZONT 18             
1 20107U 89052A   24163.91513862 -.00000143  00000+0  00000+0 0  9992
2 20107  13.1749 339.4876 0033531 331.8178 199.4602  0.99398999127098
GORIZONT 19             
1 20263U 89081A   24163.08019559  .00000121  00000+0  00000+0 0  9994
2 20263  12.8859 338.6009 0003974 219.1037 131.0181  1.00235228 39957
GORIZONT 20             
1 20659U 90054A   24163.57455348 -.00000222  00000+0  00000+0 0  9992
2 20659  13.4039 341.3392 0007133 194.1933  17.4994  1.00315945124316
GORIZONT 21             
1 20923U 90094A   24164.14936069  .00000094  00000+0  00000+0 0  9994
2 20923  13.4370 342.0764 0005712 216.2951 134.7812  1.00336183123077
GORIZONT 22             
1 20953U 90102A   24163.21560383 -.00000022  00000+0  00000+0 0  9998
2 20953  13.4083 342.5169 0001526  19.1975 337.3875  1.00265097123020
GORIZONT 23             
1 21533U 91046A   24163.21542979 -.00000198  00000+0  00000+0 0  9996
2 21533  14.2865 346.7394 0003695 313.9042  37.5458  0.98911071113455
GORIZONT 24             
1 21759U 91074A   24164.08597037 -.00000004  00000+0  00000+0 0  9994
2 21759  14.4984 348.7176 0019443 240.6157 122.3304  0.98442143117805
GORIZONT 25             
1 21922U 92017A   24163.57409661 -.00000267  00000+0  00000+0 0  9993
2 21922  14.0250 347.9228 0028189 100.8095 121.1349  0.99846161117594
GORIZONT 26             
1 22041U 92043A   24163.35240528 -.00000275  00000+0  00000+0 0  9995
2 22041  14.2570 350.0316 0031937 250.0999 116.4823  0.99246161116174
GORIZONT 27             
1 22245U 92082A   24163.71785527  .00000097  00000+0  00000+0 0  9998
2 22245  14.1618 349.4433 0010737  26.2930 355.9949  1.00169418119788
GORIZONT 28             
1 22880U 93069A   24163.59828775  .00000054  00000+0  00000+0 0  9991
2 22880  14.4220 353.4175 0034556 150.8364 176.0553  0.99654344111793
GORIZONT 29             
1 22907U 93072A   24163.08219711  .00000093  00000+0  00000+0 0  9996
2 22907  14.3169 352.8012 0008678 359.8838 346.8880  1.00119253111798
GORIZONT 30             
1 23108U 94030A   24163.28670007 -.00000044  00000+0  00000+0 0  9993
2 23108  14.3578 353.6959 0002529 198.9834 169.9839  1.00249005110114
GORIZONT 31             
1 23775U 96005A   24164.08744976  .00000025  00000+0  00000+0 0  9991
2 23775  14.4673   0.0343 0020375 219.2179 140.3012  0.99881640103706
GORIZONT 32             
1 23880U 96034A   24163.28852753  .00000015  00000+0  00000+0 0  9993
2 23880  14.4332   0.5024 0006772   2.6074   9.6432  1.00197800102667
GORIZONT 33             
1 26372U 00029A   24164.15884615 -.00000060  00000+0  00000+0 0  9991
2 26372  13.5046  12.0741 0001937 164.3634 208.4797  1.00393825 88041
